OBJECT_NAME,OBJECT_ID,EPOCH,MEAN_MOTION,ECCENTRICITY,INCLINATION,RA_OF_ASC_NODE,ARG_OF_PERICENTER,MEAN_ANOMALY,EPHEMERIS_TYPE,CLASSIFICATION_TYPE,NORAD_CAT_ID,ELEMENT_SET_NO,REV_AT_EPOCH,BSTAR,MEAN_MOTION_DOT,MEAN_MOTION_DDOT
PROBA-1,2001-049B,2026-07-13T06:54:44.864064,15.07612246,.00559003,97.9606,203.7330,36.0143,324.4830,0,U,26958,999,34755,.12042078E-3,.1827E-4,0
CUTE-1 (CO-55),2003-031E,2026-07-13T05:44:56.494464,14.24350794,.00107993,98.6742,202.4711,107.7060,252.5299,0,U,27844,999,19538,.87036192E-4,.158E-5,0
CUBESAT XI-IV (CO-57),2003-031J,2026-07-12T12:55:06.299904,14.23633637,.00104483,98.6772,201.4707,126.3839,233.8305,0,U,27848,999,19498,.7534821E-4,.128E-5,0
APRIZESAT 4,2009-041D,2026-07-12T17:54:13.260384,14.83911924,.0042095,98.1404,269.5752,237.6607,122.0528,0,U,35684,999,91515,.48022592E-4,.345E-5,0
APRIZESAT 5,2011-044E,2026-07-13T06:53:35.368224,14.81125729,.00507132,98.2450,128.0685,279.0096,80.5378,0,U,37792,999,80265,.60802817E-4,.422E-5,0
APRIZESAT 6,2011-044F,2026-07-12T18:08:34.543104,14.76954510,.00432586,98.2341,104.7757,6.0555,56.2773,0,U,37793,999,80092,.60008307E-4,.372E-5,0
PROBA-V,2013-021A,2026-07-12T21:55:34.890528,14.23603242,.00053201,98.3604,171.2523,65.3882,294.7852,0,U,39159,999,68477,.30982981E-4,.3E-6,0
APRIZESAT 7,2013-066A,2026-07-13T07:36:10.934208,14.91616895,.00371252,97.7721,147.1636,123.3134,237.1649,0,U,39416,999,68512,.48771541E-4,.438E-5,0
APRIZESAT 8,2013-066K,2026-07-13T07:20:18.735360,14.87694801,.00453301,97.8229,141.4115,198.1533,161.8067,0,U,39425,999,68355,.49047244E-4,.398E-5,0
BUGSAT-1 (TITA),2014-033E,2026-07-13T05:52:21.567648,15.15871127,.00292024,98.0439,288.3221,92.3653,268.0922,0,U,40014,999,65978,.21739459E-3,.4128E-4,0
SAUDISAT 4,2014-033G,2026-07-12T21:14:57.206112,14.79574332,.00444449,97.7614,339.1360,351.6287,8.4179,0,U,40016,999,64987,.41938932E-4,.266E-5,0
APRIZESAT 9,2014-033J,2026-07-13T04:52:30.600480,14.74251105,.00673864,97.9091,326.7703,116.2105,244.6052,0,U,40018,999,64739,.58823072E-4,.351E-5,0
APRIZESAT 10,2014-033K,2026-07-13T07:36:38.362752,14.70909592,.00785965,97.9678,320.6981,189.3619,170.6128,0,U,40019,999,64609,.5720789E-4,.314E-5,0
TECHDEMOSAT-1 (TDS-1),2014-037H,2026-07-13T06:33:43.223616,15.13661881,.00067415,98.3822,189.0806,164.8135,195.3298,0,U,40076,999,65217,.26193245E-3,.4634E-4,0
TECHNOSAT,2017-042E,2026-07-13T07:28:39.540864,15.05105208,.00176067,97.4311,350.9806,9.5606,350.5952,0,U,42829,999,49063,.14487528E-3,.2008E-4,0
FLYING LAPTOP,2017-042G,2026-07-13T07:31:57.768384,15.01304516,.00197747,97.4792,348.8620,38.5380,321.7252,0,U,42831,999,49037,.15001336E-3,.188E-4,0
HAWK-A,2018-099H,2026-07-12T16:18:12.899808,15.24944360,.00344518,97.3903,245.5853,192.8190,167.2175,0,U,43765,999,41698,.16641638E-3,.414E-4,0
HAWK-B,2018-099AN,2026-07-13T03:00:53.979264,15.23101586,.00311752,97.3951,245.3861,209.4603,150.4878,0,U,43794,999,41698,.1593939E-3,.3736E-4,0
HAWK-C,2018-099AT,2026-07-12T17:29:15.715104,15.28466075,.00400408,97.3881,246.6730,192.5496,167.4750,0,U,43799,999,41781,.17914712E-3,.5004E-4,0
SALSAT,2020-068K,2026-07-12T21:56:02.165280,15.30153171,.00089225,97.8853,198.5521,201.3461,158.7407,0,U,46495,999,31929,.16824237E-3,.4828E-4,0
HAWK-2C,2021-006CT,2026-07-13T03:58:38.732448,15.34973140,.00086281,97.2268,237.9600,106.6131,253.6060,0,U,47502,999,30348,.120521E-3,.4014E-4,0
HAWK-2A,2021-006CW,2026-07-13T04:01:52.621824,15.34987922,.00081463,97.2311,238.6553,109.8797,250.3325,0,U,47505,999,30348,.11971799E-3,.3988E-4,0
HAWK-2B,2021-006CZ,2026-07-13T00:45:03.989088,15.35117562,.00086795,97.2180,236.8123,108.6598,251.5589,0,U,47508,999,30346,.14752503E-3,.4954E-4,0
HAWK-3B,2021-059BE,2026-07-12T13:17:15.035136,15.71695978,.0004238,97.6638,32.7011,208.8876,151.2152,0,U,48931,999,28183,.25051E-3,.32206E-3,0
HAWK-3C,2021-059BX,2026-07-12T13:16:48.153504,15.71698478,.00045015,97.6757,38.4300,208.2392,151.8627,0,U,48948,999,28183,.27246147E-3,.35057E-3,0
HAWK-3A,2021-059CG,2026-07-12T22:26:43.414944,15.71730090,.00044094,97.6702,36.0341,210.6539,149.4466,0,U,48957,999,28189,.29266791E-3,.37729E-3,0
HAWK-5C,2022-057Y,2026-07-13T06:54:49.936608,15.52281591,.00030118,97.6607,355.6598,354.4378,5.6840,0,U,52754,999,23039,.19263826E-3,.11605E-3,0
HAWK-5B,2022-057AA,2026-07-13T06:54:33.760800,15.52279090,.00036582,97.6622,354.0126,340.2436,19.8674,0,U,52756,999,23039,.19281095E-3,.11615E-3,0
